FENGYUN 1C DEB          
1 37905U 99025ENE 17343.31679420  .00000601  00000-0  51402-3 0  9991
2 37905  99.4019   9.6344 0135958   3.1925 357.0068 13.86957395361741
